{
  "type": "FeatureCollection",
  "features": [
    {
      "type": "Feature",
      "properties": {
        "norad_id": 30922,
        "name": "FENGYUN 1C DEB",
        "group": "fengyun-1c-debris",
        "lat": -77.2188464181557,
        "lon": 137.17142211263914,
        "alt_km": 851.4371485335032,
        "timestamp": "2025-12-09T07:41:33.487975+00:00",
        "meta_object_name": "FENGYUN 1C DEB",
        "meta_object_id": "1999-025AZL",
        "meta_epoch": "2025-12-09T00:00:13.387680",
        "meta_mean_motion": 14.1744403,
        "meta_eccentricity": 0.00147028,
        "meta_inclination": 98.6404,
        "meta_ra_of_asc_node": 358.9492,
        "meta_arg_of_pericenter": 64.039,
        "meta_mean_anomaly": 2.6698,
        "meta_ephemeris_type": 0,
        "meta_classification_type": "U",
        "meta_norad_cat_id": 30922,
        "meta_element_set_no": 999,
        "meta_rev_at_epoch": 96511,
        "meta_bstar": 0.00089445467,
        "meta_mean_motion_dot": 1.772e-05,
        "meta_mean_motion_ddot": 0,
        "tle_line1": "1 30922U 99025AZL 25343.00015495  .00001772  00000+0  89445-3 0  9991",
        "tle_line2": "2 30922  98.6404 358.9492 0014702  64.0390   2.6698 14.17444030965116"
      },
      "geometry": {
        "type": "Point",
        "coordinates": [
          137.17142211263914,
          -77.2188464181557
        ]
      }
    },
    {
      "type": "Feature",
      "properties": {
        "norad_id": 30925,
        "name": "FENGYUN 1C DEB",
        "group": "fengyun-1c-debris",
        "lat": 69.5941875666658,
        "lon": 90.09708712349801,
        "alt_km": 765.1892173044098,
        "timestamp": "2025-12-09T07:41:33.487986+00:00",
        "meta_object_name": "FENGYUN 1C DEB",
        "meta_object_id": "1999-025AZP",
        "meta_epoch": "2025-12-08T20:25:26.145120",
        "meta_mean_motion": 14.43023313,
        "meta_eccentricity": 0.00330437,
        "meta_inclination": 98.8832,
        "meta_ra_of_asc_node": 114.4683,
        "meta_arg_of_pericenter": 248.7234,
        "meta_mean_anomaly": 265.1315,
        "meta_ephemeris_type": 0,
        "meta_classification_type": "U",
        "meta_norad_cat_id": 30925,
        "meta_element_set_no": 999,
        "meta_rev_at_epoch": 97016,
        "meta_bstar": 0.0039068019,
        "meta_mean_motion_dot": 0.00013151,
        "meta_mean_motion_ddot": 0,
        "tle_line1": "1 30925U 99025AZP 25342.85099705  .00013151  00000+0  39068-2 0  9991",
        "tle_line2": "2 30925  98.8832 114.4683 0033043 248.7234 265.1315 14.43023313970169"
      },
      "geometry": {
        "type": "Point",
        "coordinates": [
          90.09708712349801,
          69.5941875666658
        ]
      }
    },
    {
      "type": "Feature",
      "properties": {
        "norad_id": 30926,
        "name": "FENGYUN 1C DEB",
        "group": "fengyun-1c-debris",
        "lat": 10.29140622729316,
        "lon": -77.9359024527715,
        "alt_km": 494.05090355775974,
        "timestamp": "2025-12-09T07:41:33.487996+00:00",
        "meta_object_name": "FENGYUN 1C DEB",
        "meta_object_id": "1999-025AZQ",
        "meta_epoch": "2025-12-08T07:27:37.146240",
        "meta_mean_motion": 14.89258626,
        "meta_eccentricity": 0.01662446,
        "meta_inclination": 98.802,
        "meta_ra_of_asc_node": 282.5538,
        "meta_arg_of_pericenter": 35.937,
        "meta_mean_anomaly": 325.289,
        "meta_ephemeris_type": 0,
        "meta_classification_type": "U",
        "meta_norad_cat_id": 30926,
        "meta_element_set_no": 999,
        "meta_rev_at_epoch": 701,
        "meta_bstar": 0.00073198391,
        "meta_mean_motion_dot": 8.918e-05,
        "meta_mean_motion_ddot": 0,
        "tle_line1": "1 30926U 99025AZQ 25342.31084660  .00008918  00000+0  73198-3 0  9995",
        "tle_line2": "2 30926  98.8020 282.5538 0166244  35.9370 325.2890 14.89258626  7010"
      },
      "geometry": {
        "type": "Point",
        "coordinates": [
          -77.9359024527715,
          10.29140622729316
        ]
      }
    },
    {
      "type": "Feature",
      "properties": {
        "norad_id": 30927,
        "name": "FENGYUN 1C DEB",
        "group": "fengyun-1c-debris",
        "lat": 61.49844233058631,
        "lon": -118.93956881018562,
        "alt_km": 870.0027810873671,
        "timestamp": "2025-12-09T07:41:33.488006+00:00",
        "meta_object_name": "FENGYUN 1C DEB",
        "meta_object_id": "1999-025AZR",
        "meta_epoch": "2025-12-02T23:27:28.547136",
        "meta_mean_motion": 14.08892452,
        "meta_eccentricity": 0.00987852,
        "meta_inclination": 99.1836,
        "meta_ra_of_asc_node": 37.2663,
        "meta_arg_of_pericenter": 33.6709,
        "meta_mean_anomaly": 327.0684,
        "meta_ephemeris_type": 0,
        "meta_classification_type": "U",
        "meta_norad_cat_id": 30927,
        "meta_element_set_no": 999,
        "meta_rev_at_epoch": 95546,
        "meta_bstar": 0.0020438482,
        "meta_mean_motion_dot": 3.651e-05,
        "meta_mean_motion_ddot": 0,
        "tle_line1": "1 30927U 99025AZR 25336.97741374  .00003651  00000+0  20438-2 0  9990",
        "tle_line2": "2 30927  99.1836  37.2663 0098785  33.6709 327.0684 14.08892452955463"
      },
      "geometry": {
        "type": "Point",
        "coordinates": [
          -118.93956881018562,
          61.49844233058631
        ]
      }
    },
    {
      "type": "Feature",
      "properties": {
        "norad_id": 30928,
        "name": "FENGYUN 1C DEB",
        "group": "fengyun-1c-debris",
        "lat": 71.71307182293904,
        "lon": -78.63851099074652,
        "alt_km": 1017.0013972206516,
        "timestamp": "2025-12-09T07:41:33.488017+00:00",
        "meta_object_name": "FENGYUN 1C DEB",
        "meta_object_id": "1999-025AZS",
        "meta_epoch": "2025-12-08T05:53:27.603168",
        "meta_mean_motion": 13.22232123,
        "meta_eccentricity": 0.04506095,
        "meta_inclination": 98.8831,
        "meta_ra_of_asc_node": 72.2004,
        "meta_arg_of_pericenter": 42.8637,
        "meta_mean_anomaly": 343.7642,
        "meta_ephemeris_type": 0,
        "meta_classification_type": "U",
        "meta_norad_cat_id": 30928,
        "meta_element_set_no": 999,
        "meta_rev_at_epoch": 90289,
        "meta_bstar": 0.0013424906,
        "meta_mean_motion_dot": 9.22e-06,
        "meta_mean_motion_ddot": 0,
        "tle_line1": "1 30928U 99025AZS 25342.24545837  .00000922  00000+0  13425-2 0  9990",
        "tle_line2": "2 30928  98.8831  72.2004 0450609  42.8637 343.7642 13.22232123902898"
      },
      "geometry": {
        "type": "Point",
        "coordinates": [
          -78.63851099074652,
          71.71307182293904
        ]
      }
    },
    {
      "type": "Feature",
      "properties": {
        "norad_id": 30930,
        "name": "FENGYUN 1C DEB",
        "group": "fengyun-1c-debris",
        "lat": -81.40385596477563,
        "lon": 118.88146649105121,
        "alt_km": 842.8024502220951,
        "timestamp": "2025-12-09T07:41:33.488027+00:00",
        "meta_object_name": "FENGYUN 1C DEB",
        "meta_object_id": "1999-025AZU",
        "meta_epoch": "2025-12-07T20:13:16.110912",
        "meta_mean_motion": 14.37375022,
        "meta_eccentricity": 0.01095868,
        "meta_inclination": 98.2155,
        "meta_ra_of_asc_node": 10.3532,
        "meta_arg_of_pericenter": 120.9146,
        "meta_mean_anomaly": 62.4961,
        "meta_ephemeris_type": 0,
        "meta_classification_type": "U",
        "meta_norad_cat_id": 30930,
        "meta_element_set_no": 999,
        "meta_rev_at_epoch": 98261,
        "meta_bstar": 0.00063431611,
        "meta_mean_motion_dot": 1.988e-05,
        "meta_mean_motion_ddot": 0,
        "tle_line1": "1 30930U 99025AZU 25341.84254758  .00001988  00000+0  63432-3 0  9994",
        "tle_line2": "2 30930  98.2155  10.3532 0109586 120.9146  62.4961 14.37375022982611"
      },
      "geometry": {
        "type": "Point",
        "coordinates": [
          118.88146649105121,
          -81.40385596477563
        ]
      }
    },
    {
      "type": "Feature",
      "properties": {
        "norad_id": 30931,
        "name": "FENGYUN 1C DEB",
        "group": "fengyun-1c-debris",
        "lat": -2.4593734075243,
        "lon": -139.56172928319674,
        "alt_km": 936.3387881725357,
        "timestamp": "2025-12-09T07:41:33.488037+00:00",
        "meta_object_name": "FENGYUN 1C DEB",
        "meta_object_id": "1999-025AZV",
        "meta_epoch": "2025-12-08T16:08:31.560000",
        "meta_mean_motion": 14.01502844,
        "meta_eccentricity": 0.00932887,
        "meta_inclination": 99.1718,
        "meta_ra_of_asc_node": 40.1848,
        "meta_arg_of_pericenter": 52.6711,
        "meta_mean_anomaly": 101.5643,
        "meta_ephemeris_type": 0,
        "meta_classification_type": "U",
        "meta_norad_cat_id": 30931,
        "meta_element_set_no": 999,
        "meta_rev_at_epoch": 95868,
        "meta_bstar": 0.00090717708,
        "meta_mean_motion_dot": 1.379e-05,
        "meta_mean_motion_ddot": 0,
        "tle_line1": "1 30931U 99025AZV 25342.67258750  .00001379  00000+0  90718-3 0  9994",
        "tle_line2": "2 30931  99.1718  40.1848 0093288  52.6711 101.5643 14.01502844958685"
      },
      "geometry": {
        "type": "Point",
        "coordinates": [
          -139.56172928319674,
          -2.4593734075243
        ]
      }
    }
  ]
}